0 COSMOS 1818 COOLANT
1 36953U 87011AH  13277.38441870  .00000267  00000-0  13647-3 0  1809
2 36953 065.0049 276.8962 0023281 259.6393 100.2127 14.31903423188230
0 COSMOS 1818 COOLANT
1 36953U 87011AH  13279.40983173  .00000297  00000-0  14760-3 0  1812
2 36953 065.0063 271.2221 0023157 257.6250 102.2258 14.31905753188522
0 COSMOS 1818 COOLANT
1 36953U 87011AH  13281.57492920  .00000299  00000-0  14834-3 0  1823
2 36953 065.0046 265.1506 0023140 258.7151 101.1308 14.31907459188838
0 COSMOS 1818 COOLANT
1 36953U 87011AH  13285.55590876  .00000349  00000-0  16682-3 0  1834
2 36953 065.0065 253.9926 0023829 254.1236 105.7706 14.31912131189407
0 COSMOS 1818 COOLANT
1 36953U 87011AH  13291.21305394  .00000374  00000-0  17609-3 0  1842
2 36953 065.0041 238.1299 0024589 256.5215 103.3129 14.31918016190218
